{"type": "FeatureCollection", "features": [ {"type": "Feature", "properties": {"norad_id": 66959, "name": "STARLINK-35887", "group": "last-30-days", "lat": -42.83077094695929, "lon": 7.317376063257598, "alt_km": 349.1607655887956, "timestamp": "2025-12-23T05:02:10.751885+00:00", "meta": {"OBJECT_NAME": "STARLINK-35887", "OBJECT_ID": "2025-288A", "EPOCH": "2025-12-22T22:00:03.000096", "MEAN_MOTION": 15.75370481, "ECCENTRICITY": 0.00017347, "INCLINATION": 43.0009, "RA_OF_ASC_NODE": 104.9472, "ARG_OF_PERICENTER": 284.8581, "MEAN_ANOMALY": 116.9293, "EPHEMERIS_TYPE": 0, "CLASSIFICATION_TYPE": "U", "NORAD_CAT_ID": 66959, "ELEMENT_SET_NO": 999, "REV_AT_EPOCH": 346, "BSTAR": -0.013403562, "MEAN_MOTION_DOT": -0.01828028, "MEAN_MOTION_DDOT": 0}, "tle": {"line1": "1 66959U 25288A   25356.91670139 -.01828028  00000+0 -13404-1 0  9990", "line2": "2 66959  43.0009 104.9472 0001734 284.8581 116.9293 15.75370481  3466"}}, "geometry": {"type": "Point", "coordinates": [7.317376063257598, -42.83077094695929]}}, {"type": "Feature", "properties": {"norad_id": 66960, "name": "STARLINK-35879", "group": "last-30-days", "lat": -42.933941603981616, "lon": 9.914331594140215, "alt_km": 349.2325943638816, "timestamp": "2025-12-23T05:02:10.751895+00:00", "meta": {"OBJECT_NAME": "STARLINK-35879", "OBJECT_ID": "2025-288B", "EPOCH": "2025-12-22T22:00:03.000096", "MEAN_MOTION": 15.75351978, "ECCENTRICITY": 0.00015489, "INCLINATION": 43.0008, "RA_OF_ASC_NODE": 104.9426, "ARG_OF_PERICENTER": 279.8661, "MEAN_ANOMALY": 123.8395, "EPHEMERIS_TYPE": 0, "CLASSIFICATION_TYPE": "U", "NORAD_CAT_ID": 66960, "ELEMENT_SET_NO": 999, "REV_AT_EPOCH": 346, "BSTAR": -0.013198244, "MEAN_MOTION_DOT": -0.01802102, "MEAN_MOTION_DDOT": 0}, "tle": {"line1": "1 66960U 25288B   25356.91670139 -.01802102  00000+0 -13198-1 0  9997", "line2": "2 66960  43.0008 104.9426 0001548 279.8661 123.8395 15.75351978  3462"}}, "geometry": {"type": "Point", "coordinates": [9.914331594140215, -42.933941603981616]}}, {"type": "Feature", "properties": {"norad_id": 66961, "name": "STARLINK-35761", "group": "last-30-days", "lat": -42.97824567648086, "lon": 12.535715874921808, "alt_km": 349.08883300144043, "timestamp": "2025-12-23T05:02:10.751905+00:00", "meta": {"OBJECT_NAME": "STARLINK-35761", "OBJECT_ID": "2025-288C", "EPOCH": "2025-12-22T22:00:03.000096", "MEAN_MOTION": 15.75371339, "ECCENTRICITY": 0.00017224, "INCLINATION": 43.0008, "RA_OF_ASC_NODE": 104.9379, "ARG_OF_PERICENTER": 276.5004, "MEAN_ANOMALY": 129.1188, "EPHEMERIS_TYPE": 0, "CLASSIFICATION_TYPE": "U", "NORAD_CAT_ID": 66961, "ELEMENT_SET_NO": 999, "REV_AT_EPOCH": 346, "BSTAR": -0.013406988, "MEAN_MOTION_DOT": -0.01828485, "MEAN_MOTION_DDOT": 0}, "tle": {"line1": "1 66961U 25288C   25356.91670139 -.01828485  00000+0 -13407-1 0  9993", "line2": "2 66961  43.0008 104.9379 0001722 276.5004 129.1188 15.75371339  3461"}}, "geometry": {"type": "Point", "coordinates": [12.535715874921808, -42.97824567648086]}}, {"type": "Feature", "properties": {"norad_id": 66962, "name": "STARLINK-35874", "group": "last-30-days", "lat": -42.96290786822674, "lon": 15.138419912488926, "alt_km": 349.2934285926285, "timestamp": "2025-12-23T05:02:10.751915+00:00", "meta": {"OBJECT_NAME": "STARLINK-35874", "OBJECT_ID": "2025-288D", "EPOCH": "2025-12-22T22:00:03.000096", "MEAN_MOTION": 15.7535489, "ECCENTRICITY": 0.0001566, "INCLINATION": 43.0009, "RA_OF_ASC_NODE": 104.9327, "ARG_OF_PERICENTER": 290.6871, "MEAN_ANOMALY": 116.8596, "EPHEMERIS_TYPE": 0, "CLASSIFICATION_TYPE": "U", "NORAD_CAT_ID": 66962, "ELEMENT_SET_NO": 999, "REV_AT_EPOCH": 346, "BSTAR": -0.013292337, "MEAN_MOTION_DOT": -0.01813542, "MEAN_MOTION_DDOT": 0}, "tle": {"line1": "1 66962U 25288D   25356.91670139 -.01813542  00000+0 -13292-1 0  9994", "line2": "2 66962  43.0009 104.9327 0001566 290.6871 116.8596 15.75354890  3460"}}, "geometry": {"type": "Point", "coordinates": [15.138419912488926, -42.96290786822674]}}, {"type": "Feature", "properties": {"norad_id": 66963, "name": "STARLINK-36133", "group": "last-30-days", "lat": -42.88756921853417, "lon": 17.752167325349888, "alt_km": 349.3037115683301, "timestamp": "2025-12-23T05:02:10.751927+00:00", "meta": {"OBJECT_NAME": "STARLINK-36133", "OBJECT_ID": "2025-288E", "EPOCH": "2025-12-22T22:00:03.000096", "MEAN_MOTION": 15.75363651, "ECCENTRICITY": 0.00014757, "INCLINATION": 43.0007, "RA_OF_ASC_NODE": 104.9282, "ARG_OF_PERICENTER": 286.8301, "MEAN_ANOMALY": 122.6313, "EPHEMERIS_TYPE": 0, "CLASSIFICATION_TYPE": "U", "NORAD_CAT_ID": 66963, "ELEMENT_SET_NO": 999, "REV_AT_EPOCH": 346, "BSTAR": -0.01338804, "MEAN_MOTION_DOT": -0.01825476, "MEAN_MOTION_DDOT": 0}, "tle": {"line1": "1 66963U 25288E   25356.91670139 -.01825476  00000+0 -13388-1 0  9990", "line2": "2 66963  43.0007 104.9282 0001475 286.8301 122.6313 15.75363651  3460"}}, "geometry": {"type": "Point", "coordinates": [17.752167325349888, -42.88756921853417]}}, {"type": "Feature", "properties": {"norad_id": 66964, "name": "STARLINK-36104", "group": "last-30-days", "lat": -42.75351213385516, "lon": 20.34569973372834, "alt_km": 349.27013858711325, "timestamp": "2025-12-23T05:02:10.751937+00:00", "meta": {"OBJECT_NAME": "STARLINK-36104", "OBJECT_ID": "2025-288F", "EPOCH": "2025-12-22T22:00:03.000096", "MEAN_MOTION": 15.75357589, "ECCENTRICITY": 0.00015299, "INCLINATION": 43.0006, "RA_OF_ASC_NODE": 104.9228, "ARG_OF_PERICENTER": 289.6827, "MEAN_ANOMALY": 121.6963, "EPHEMERIS_TYPE": 0, "CLASSIFICATION_TYPE": "U", "NORAD_CAT_ID": 66964, "ELEMENT_SET_NO": 999, "REV_AT_EPOCH": 346, "BSTAR": -0.01331791, "MEAN_MOTION_DOT": -0.01816748, "MEAN_MOTION_DDOT": 0}, "tle": {"line1": "1 66964U 25288F   25356.91670139 -.01816748  00000+0 -13318-1 0  9996", "line2": "2 66964  43.0006 104.9228 0001529 289.6827 121.6963 15.75357589  3467"}}, "geometry": {"type": "Point", "coordinates": [20.34569973372834, -42.75351213385516]}}, {"type": "Feature", "properties": {"norad_id": 66965, "name": "STARLINK-36067", "group": "last-30-days", "lat": -42.5611538718308, "lon": 22.92267431446723, "alt_km": 349.3813103323746, "timestamp": "2025-12-23T05:02:10.751949+00:00", "meta": {"OBJECT_NAME": "STARLINK-36067", "OBJECT_ID": "2025-288G", "EPOCH": "2025-12-22T22:00:03.000096", "MEAN_MOTION": 15.75340804, "ECCENTRICITY": 0.00012398, "INCLINATION": 43.0003, "RA_OF_ASC_NODE": 104.9188, "ARG_OF_PERICENTER": 275.9659, "MEAN_ANOMALY": 137.3218, "EPHEMERIS_TYPE": 0, "CLASSIFICATION_TYPE": "U", "NORAD_CAT_ID": 66965, "ELEMENT_SET_NO": 999, "REV_AT_EPOCH": 346, "BSTAR": -0.013035289, "MEAN_MOTION_DOT": -0.01781596, "MEAN_MOTION_DDOT": 0}, "tle": {"line1": "1 66965U 25288G   25356.91670139 -.01781596  00000+0 -13035-1 0  9995", "line2": "2 66965  43.0003 104.9188 0001239 275.9659 137.3218 15.75340804  3468"}}, "geometry": {"type": "Point", "coordinates": [22.92267431446723, -42.5611538718308]}}, {"type": "Feature", "properties": {"norad_id": 66966, "name": "STARLINK-36139", "group": "last-30-days", "lat": -42.310489859088, "lon": 25.491963378857914, "alt_km": 348.86387665995517, "timestamp": "2025-12-23T05:02:10.751959+00:00", "meta": {"OBJECT_NAME": "STARLINK-36139", "OBJECT_ID": "2025-288H", "EPOCH": "2025-12-22T22:00:03.000096", "MEAN_MOTION": 15.75342986, "ECCENTRICITY": 0.00020107, "INCLINATION": 43.0005, "RA_OF_ASC_NODE": 104.9136, "ARG_OF_PERICENTER": 282.4761, "MEAN_ANOMALY": 132.7356, "EPHEMERIS_TYPE": 0, "CLASSIFICATION_TYPE": "U", "NORAD_CAT_ID": 66966, "ELEMENT_SET_NO": 999, "REV_AT_EPOCH": 346, "BSTAR": -0.013122319, "MEAN_MOTION_DOT": -0.01792798, "MEAN_MOTION_DDOT": 0}, "tle": {"line1": "1 66966U 25288H   25356.91670139 -.01792798  00000+0 -13122-1 0  9999", "line2": "2 66966  43.0005 104.9136 0002010 282.4761 132.7356 15.75342986  3464"}}, "geometry": {"type": "Point", "coordinates": [25.491963378857914, -42.310489859088]}}, {"type": "Feature", "properties": {"norad_id": 66967, "name": "STARLINK-36136", "group": "last-30-days", "lat": -41.997811419636534, "lon": 28.074284001847236, "alt_km": 349.1181279503744, "timestamp": "2025-12-23T05:02:10.751982+00:00", "meta": {"OBJECT_NAME": "STARLINK-36136", "OBJECT_ID": "2025-288J", "EPOCH": "2025-12-22T22:00:03.000096", "MEAN_MOTION": 15.75256434, "ECCENTRICITY": 0.00018435, "INCLINATION": 43.0005, "RA_OF_ASC_NODE": 104.9084, "ARG_OF_PERICENTER": 265.7372, "MEAN_ANOMALY": 151.478, "EPHEMERIS_TYPE": 0, "CLASSIFICATION_TYPE": "U", "NORAD_CAT_ID": 66967, "ELEMENT_SET_NO": 999, "REV_AT_EPOCH": 346, "BSTAR": -0.012614379, "MEAN_MOTION_DOT": -0.01725757, "MEAN_MOTION_DDOT": 0}, "tle": {"line1": "1 66967U 25288J   25356.91670139 -.01725757  00000+0 -12614-1 0  9996", "line2": "2 66967  43.0005 104.9084 0001843 265.7372 151.4780 15.75256434  3463"}}, "geometry": {"type": "Point", "coordinates": [28.074284001847236, -41.997811419636534]}}, {"type": "Feature", "properties": {"norad_id": 66968, "name": "STARLINK-36152", "group": "last-30-days", "lat": -41.63808811621148, "lon": 30.56252682579576, "alt_km": 349.2306447854198, "timestamp": "2025-12-23T05:02:10.751994+00:00", "meta": {"OBJECT_NAME": "STARLINK-36152", "OBJECT_ID": "2025-288K", "EPOCH": "2025-12-22T22:00:03.000096", "MEAN_MOTION": 15.75352216, "ECCENTRICITY": 0.00014407, "INCLINATION": 43.0006, "RA_OF_ASC_NODE": 104.9033, "ARG_OF_PERICENTER": 285.2409, "MEAN_ANOMALY": 133.8086, "EPHEMERIS_TYPE": 0, "CLASSIFICATION_TYPE": "U", "NORAD_CAT_ID": 66968, "ELEMENT_SET_NO": 999, "REV_AT_EPOCH": 346, "BSTAR": -0.013252689, "MEAN_MOTION_DOT": -0.01808525, "MEAN_MOTION_DDOT": 0}, "tle": {"line1": "1 66968U 25288K   25356.91670139 -.01808525  00000+0 -13253-1 0  9992", "line2": "2 66968  43.0006 104.9033 0001440 285.2409 133.8086 15.75352216  3468"}}, "geometry": {"type": "Point", "coordinates": [30.56252682579576, -41.63808811621148]}}]}